COSMOS 2419 (714)       
1 28915U 05050A   16303.27051013 -.00000027  00000-0  00000+0 0  9996
2 28915  65.3859  73.6386 0014354 358.5853  46.2727  2.13104973 84415
COSMOS 2425 (716)       
1 29670U 06062A   16303.13964438 -.00000017  00000-0  10000-3 0  9992
2 29670  65.5724 312.6493 0020884 337.7831  22.4322  2.13104993 76614
COSMOS 2426 (717)       
1 29671U 06062B   16303.42618834 -.00000018  00000-0  10000-3 0  9992
2 29671  65.5896 312.7244 0017929 174.4842 265.4985  2.13103005 76622
COSMOS 2424 (715)       
1 29672U 06062C   16303.15645135 -.00000017  00000-0  10000-3 0  9996
2 29672  65.5753 312.6593 0017368 173.6210 235.4416  2.13102260 76615
COSMOS 2433 (720)       
1 32275U 07052A   16303.07728697 -.00000028  00000-0  10000-3 0  9997
2 32275  65.4006  73.4194 0001806 207.0745 297.4224  2.13104826 70127
COSMOS 2432 (719)       
1 32276U 07052B   16303.11192437 -.00000027  00000-0  10000-3 0  9999
2 32276  65.4135  73.4866 0009723 343.4883 141.0874  2.13104091 70120
COSMOS 2434 (721)       
1 32393U 07065A   16303.12443003 -.00000018  00000-0  00000-0 0  9998
2 32393  65.1911 311.9087 0002880 158.8331 272.8989  2.13102902 68831
COSMOS 2436 (723)       
1 32395U 07065C   16303.32540918 -.00000019  00000-0  10000-3 0  9990
2 32395  65.2036 311.9470 0016192 343.8882 334.0504  2.13102885 68762
COSMOS 2443 (725)       
1 33379U 08046B   16302.86145800 -.00000029  00000-0  10000-3 0  9993
2 33379  65.3302  72.8303 0017271 180.5315  61.7332  2.13100947 62984
COSMOS 2456 (730)       
1 36111U 09070A   16303.43869546  .00000030  00000-0  00000+0 0  9998
2 36111  64.1797 191.4692 0004233 319.2386 163.7499  2.13103006 53502
COSMOS 2457 (733)       
1 36112U 09070B   16303.14540012  .00000027  00000-0  00000-0 0  9998
2 36112  64.1612 191.4030 0006507 164.7869 222.8326  2.13101744 53503
COSMOS 2458 (734)       
1 36113U 09070C   16303.09849117  .00000026  00000-0  10000-3 0  9994
2 36113  64.1666 191.4119 0001518  22.2595  17.0142  2.13101881 53504
COSMOS 2459 (731)       
1 36400U 10007A   16303.07922024 -.00000030  00000-0  10000-3 0  9998
2 36400  65.3092  72.5529 0026339 356.2638  13.8872  2.13102190 51853
COSMOS 2461 (735)       
1 36401U 10007B   16303.06242162 -.00000030  00000-0  10000-3 0  9996
2 36401  65.3023  72.5340 0007823  83.6670 184.2007  2.13102233 51843
COSMOS 2460 (732)       
1 36402U 10007C   16303.40690497 -.00000030  00000-0  10000-3 0  9993
2 36402  65.2929  72.4981 0002194 122.9723  90.8019  2.13101860 51851
COSMOS 2465 (737)       
1 37138U 10041B   16303.07631684 -.00000019  00000-0  00000-0 0  9997
2 37138  64.7902 312.0159 0036322 175.9399 262.1035  2.13103417 47925
COSMOS 2464 (736)       
1 37139U 10041C   16303.13219734 -.00000019  00000-0  00000-0 0  9993
2 37139  64.7968 312.0108 0021111   6.0136 299.3813  2.13102667 47927
COSMOS 2471 (701K)      
1 37372U 11009A   16303.11353816 -.00000030  00000-0  00000-0 0  9998
2 37372  65.2912  72.4572 0007503 222.6246 259.1234  2.13102767 44121
COSMOS 2474 (742)       
1 37829U 11055A   16303.23852344  .00000027  00000-0  00000+0 0  9993
2 37829  64.5033 191.9444 0007810 250.0869 300.1459  2.13101971 39492
COSMOS 2476 (744)       
1 37867U 11064A   16303.06983668  .00000025  00000-0  00000-0 0  9999
2 37867  64.4820 192.0278 0016935 245.0697 221.6265  2.13101976 38840
COSMOS 2477 (745)       
1 37868U 11064B   16303.07737074  .00000025  00000-0  00000-0 0  9999
2 37868  64.4907 192.0701 0014939 246.4937  45.2393  2.13101962 38793
COSMOS 2475 (743)       
1 37869U 11064C   16303.14044080  .00000026  00000-0  00000-0 0  9997
2 37869  64.4983 192.0564 0020064 274.0997  22.2712  2.13102260 38808
COSMOS 2485 (747)       
1 39155U 13019A   16303.10057381  .00000026  00000-0  00000-0 0  9993
2 39155  64.6528 192.0063 0017296 239.5991 295.7828  2.13102079 27319
COSMOS 2492 (754)       
1 39620U 14012A   16303.13219734 -.00000030  00000-0  10000-3 0  9999
2 39620  65.1825  72.4763 0013135 336.2207 257.0104  2.13103423 20262
COSMOS 2500 (755)       
1 40001U 14032A   16303.21012953 -.00000030  00000-0  00000+0 0  9994
2 40001  65.1220  72.4877 0006757 187.4897 329.0473  2.13102854 18482
COSMOS 2501 (702K)      
1 40315U 14075A   16303.40052159 -.00000021  00000-0  00000+0 0  9992
2 40315  64.5619 313.4176 0019680 235.0630 228.2141  2.13101651 14896
COSMOS 2514 (751)       
1 41330U 16008A   16302.83406918 -.00000029  00000-0  00000-0 0  9999
2 41330  64.9226  72.7030 0009483 202.1798 205.2386  2.13103452  5646
COSMOS 2516 (753)       
1 41554U 16032A   16303.15537042 -.00000020  00000-0  00000-0 0  9994
2 41554  64.7428 313.1336 0014244 227.8846 319.9774  2.13101592  3258
